O3B FM5                 
1 39188U 13031A   22323.19250175 -.00000012  00000+0  00000+0 0  9991
2 39188   0.0659  12.0538 0002770 231.2758 116.6490  5.00115378171707
O3B FM4                 
1 39189U 13031B   22323.04857395 -.00000012  00000+0  00000+0 0  9993
2 39189   0.0443 353.1293 0002719 249.7370 117.1129  5.00115882171809
O3B FM2                 
1 39190U 13031C   22323.14004497 -.00000012  00000+0  00000+0 0  9993
2 39190   0.0421 347.0150 0002722 254.3718 118.5928  5.00115102171776
O3B PFM                 
1 39191U 13031D   22323.36619160 -.00000011  00000+0  00000+0 0  9996
2 39191   0.0575   8.7710 0002727 230.3439 120.8653  5.00115759171341
O3B FM3                 
1 40079U 14038A   22322.42154820 -.00000013  00000+0  00000+0 0  9996
2 40079   0.0502 359.4774 0004623 214.1293 146.3706  5.00115381147660
O3B FM7                 
1 40080U 14038B   22323.16717819 -.00000012  00000+0  00000+0 0  9992
2 40080   0.0504 354.3366 0002523 286.6081  79.0340  5.00115526152530
O3B FM6                 
1 40081U 14038C   22322.99367851 -.00000012  00000+0  00000+0 0  9990
2 40081   0.0490 359.4803 0002791 239.5736 120.9257  5.00115314152480
O3B FM8                 
1 40082U 14038D   22323.04756312 -.00000012  00000+0  00000+0 0  9992
2 40082   0.0461 357.7839 0002666 238.4478 123.7498  5.00115707152609
O3B FM10                
1 40348U 14083A   22323.27357621 -.00000011  00000+0  00000+0 0  9991
2 40348   0.0525   9.0725 0002700 229.4345 121.4737  5.00115134144569
O3B FM11                
1 40349U 14083B   22322.68732999 -.00000013  00000+0  00000+0 0  9993
2 40349   0.0561   5.8527 0002858 246.7010 107.4218  5.00115414144557
O3B FM12                
1 40350U 14083C   22323.11433468 -.00000012  00000+0  00000+0 0  9992
2 40350   0.0551   5.6822 0002888 235.5371 118.7587  5.00115275144585
O3B FM9                 
1 40351U 14083D   22322.94122863 -.00000012  00000+0  00000+0 0  9997
2 40351   0.0572   5.4210 0002697 234.2716 120.2877  5.00116079144724
DIAMOND RED             
1 42783U 17036U   22323.06118454  .00010032  00000+0  34245-3 0  9998
2 42783  97.1827 358.6517 0011123 132.2046 228.0142 15.30453103300569
DIAMOND GREEN           
1 42785U 17036W   22323.06061630  .00011023  00000+0  37503-3 0  9994
2 42785  97.1829 358.7190 0010921 133.5576 226.6574 15.30537483300633
DIAMOND BLUE            
1 42786U 17036X   22323.06010803  .00010835  00000+0  36900-3 0  9991
2 42786  97.1831 358.7100 0011006 133.6276 226.5880 15.30508217300633
LEO VANTAGE 1           
1 43113U 18004C   22323.17157296  .00001990  00000+0  16257-3 0  9997
2 43113  99.2435  59.7603 0399627  86.3534 278.3259 14.54622569246722
O3B FM15                
1 43231U 18024A   22323.40695277 -.00000011  00000+0  00000+0 0  9991
2 43231   0.0502  12.0615 0003046 228.3202 119.5950  5.00116136 85702
O3B FM16                
1 43232U 18024B   22323.46036231 -.00000011  00000+0  00000+0 0  9997
2 43232   0.0487  16.5744 0003033 224.4121 118.9902  5.00115942 85614
O3B FM14                
1 43233U 18024C   22323.30018196 -.00000011  00000+0  00000+0 0  9991
2 43233   0.0476  17.8934 0002934 226.0414 116.0420  5.00115355 85623
O3B FM13                
1 43234U 18024D   22323.35371198 -.00000011  00000+0  00000+0 0  9991
2 43234   0.0600  11.1711 0003861 230.8689 117.9280  5.00115311 85749
O3B FM20                
1 44112U 19020A   22323.32687531 -.00000011  00000+0  00000+0 0  9992
2 44112   0.0518   8.7076 0003312 236.5719 114.6931  5.00115463 66246
O3B FM19                
1 44113U 19020B   22321.35481454 -.00000016  00000+0  00000+0 0  9995
2 44113   0.0750  12.4113 0002176 254.2659  93.3043  5.00115220 66019
O3B FM17                
1 44114U 19020C   22322.83449493 -.00000012  00000+0  00000+0 0  9993
2 44114   0.0322   8.6248 0003166 230.8717 120.4791  5.00115670 66174
O3B FM18                
1 44115U 19020D   22323.18077318 -.00000012  00000+0  00000+0 0  9996
2 44115   0.0522   8.7645 0002954 230.0722 121.1413  5.00115789 66317
SALSAT                  
1 46495U 20068K   22323.22702361  .00002348  00000+0  16794-3 0  9995
2 46495  97.7456 264.7535 0018156 110.1725 250.1456 15.05322244117468
